LES 9                   
1 08747U 76023B   13128.50883734 -.00000082  00000-0  00000+0 0  9201
2 08747  12.8927 111.9892 0022861  18.3791 175.5374  1.00276270 81664